{"type": "FeatureCollection", "features": [ {"type": "Feature", "properties": {"norad_id": 47073, "name": "COSMOS 2251 DEB", "group": "cosmos-2251-debris", "lat": 42.79384875346495, "lon": -147.05904877188948, "alt_km": 989.2558113976602, "timestamp": "2025-12-15T04:01:20.850780+00:00", "meta": {"OBJECT_NAME": "COSMOS 2251 DEB", "OBJECT_ID": "1993-036BYD", "EPOCH": "2025-12-10T22:57:37.610784", "MEAN_MOTION": 14.04716581, "ECCENTRICITY": 0.0162103, "INCLINATION": 74.0823, "RA_OF_ASC_NODE": 204.9451, "ARG_OF_PERICENTER": 243.6176, "MEAN_ANOMALY": 114.8243, "EPHEMERIS_TYPE": 0, "CLASSIFICATION_TYPE": "U", "NORAD_CAT_ID": 47073, "ELEMENT_SET_NO": 999, "REV_AT_EPOCH": 60336, "BSTAR": 0.00063847, "MEAN_MOTION_DOT": 1.125e-05, "MEAN_MOTION_DDOT": 0}, "tle": {"line1": "1 47073U 93036BYD 25344.95668531  .00001125  00000+0  63847-3 0  9992", "line2": "2 47073  74.0823 204.9451 0162103 243.6176 114.8243 14.04716581603362"}}, "geometry": {"type": "Point", "coordinates": [-147.05904877188948, 42.79384875346495]}}, {"type": "Feature", "properties": {"norad_id": 47074, "name": "COSMOS 2251 DEB", "group": "cosmos-2251-debris", "lat": 65.96134085172716, "lon": 84.52686949150285, "alt_km": 840.0850721999932, "timestamp": "2025-12-15T04:01:20.850790+00:00", "meta": {"OBJECT_NAME": "COSMOS 2251 DEB", "OBJECT_ID": "1993-036BYE", "EPOCH": "2025-12-14T04:11:13.221312", "MEAN_MOTION": 14.35642167, "ECCENTRICITY": 0.01443955, "INCLINATION": 74.0928, "RA_OF_ASC_NODE": 306.0867, "ARG_OF_PERICENTER": 333.9611, "MEAN_ANOMALY": 42.2812, "EPHEMERIS_TYPE": 0, "CLASSIFICATION_TYPE": "U", "NORAD_CAT_ID": 47074, "ELEMENT_SET_NO": 999, "REV_AT_EPOCH": 2703, "BSTAR": 0.001977061, "MEAN_MOTION_DOT": 6.399e-05, "MEAN_MOTION_DDOT": 0}, "tle": {"line1": "1 47074U 93036BYE 25348.17445858  .00006399  00000+0  19771-2 0  9990", "line2": "2 47074  74.0928 306.0867 0144395 333.9611  42.2812 14.35642167 27036"}}, "geometry": {"type": "Point", "coordinates": [84.52686949150285, 65.96134085172716]}}, {"type": "Feature", "properties": {"norad_id": 47116, "name": "COSMOS 2251 DEB", "group": "cosmos-2251-debris", "lat": 36.89469661248667, "lon": 43.37594596627925, "alt_km": 583.8510993264645, "timestamp": "2025-12-15T04:01:20.850800+00:00", "meta": {"OBJECT_NAME": "COSMOS 2251 DEB", "OBJECT_ID": "1993-036BYJ", "EPOCH": "2025-12-11T00:06:23.501088", "MEAN_MOTION": 14.98044349, "ECCENTRICITY": 0.00215318, "INCLINATION": 74.0231, "RA_OF_ASC_NODE": 244.2359, "ARG_OF_PERICENTER": 338.282, "MEAN_ANOMALY": 38.4094, "EPHEMERIS_TYPE": 0, "CLASSIFICATION_TYPE": "U", "NORAD_CAT_ID": 47116, "ELEMENT_SET_NO": 999, "REV_AT_EPOCH": 59485, "BSTAR": 0.0031113289, "MEAN_MOTION_DOT": 0.0003712, "MEAN_MOTION_DDOT": 0}, "tle": {"line1": "1 47116U 93036BYJ 25345.00443867  .00037120  00000+0  31113-2 0  9994", "line2": "2 47116  74.0231 244.2359 0021531 338.2820  38.4094 14.98044349594850"}}, "geometry": {"type": "Point", "coordinates": [43.37594596627925, 36.89469661248667]}}, {"type": "Feature", "properties": {"norad_id": 53093, "name": "COSMOS 2251 DEB", "group": "cosmos-2251-debris", "lat": -13.15400513498627, "lon": 120.79140928797024, "alt_km": 770.1373158314018, "timestamp": "2025-12-15T04:01:20.850811+00:00", "meta": {"OBJECT_NAME": "COSMOS 2251 DEB", "OBJECT_ID": "1993-036BYP", "EPOCH": "2025-12-14T07:08:45.986208", "MEAN_MOTION": 14.41893105, "ECCENTRICITY": 0.00192755, "INCLINATION": 74.0363, "RA_OF_ASC_NODE": 298.5672, "ARG_OF_PERICENTER": 15.3893, "MEAN_ANOMALY": 344.7845, "EPHEMERIS_TYPE": 0, "CLASSIFICATION_TYPE": "U", "NORAD_CAT_ID": 53093, "ELEMENT_SET_NO": 999, "REV_AT_EPOCH": 17748, "BSTAR": 0.0010655739, "MEAN_MOTION_DOT": 3.471e-05, "MEAN_MOTION_DDOT": 0}, "tle": {"line1": "1 53093U 93036BYP 25348.29775447  .00003471  00000+0  10656-2 0  9992", "line2": "2 53093  74.0363 298.5672 0019275  15.3893 344.7845 14.41893105177485"}}, "geometry": {"type": "Point", "coordinates": [120.79140928797024, -13.15400513498627]}}]}